0 SL-16 DEB
1 20628U 90046E   13283.99456222 -.00000023  00000-0  19701-4 0  4154
2 20628 070.9792 243.1013 0213139 275.4372 172.5481 13.71460383170447
0 SL-16 DEB
1 20628U 90046E   13286.19136698 -.00000027  00000-0  15987-4 0  4168
2 20628 070.9796 238.8036 0213098 272.3718 218.7049 13.71460490170746
0 SL-16 DEB
1 20628U 90046E   13288.31130326  .00000016  00000-0  56447-4 0  4170
2 20628 070.9800 234.6562 0213067 269.4091 245.3490 13.71460396171031
0 SL-16 DEB
1 20628U 90046E   13291.21088086  .00000019  00000-0  59502-4 0  4187
2 20628 070.9802 228.9842 0213011 265.3615 161.2679 13.71460433171437
0 SL-16 DEB
1 20628U 90046E   13293.27089561  .00000023  00000-0  63344-4 0  4199
2 20628 070.9800 224.9546 0212955 262.4788 252.0685 13.71460788171717
0 SL-16 DEB
1 20628U 90046E   13296.17063838 -.00000022  00000-0  20892-4 0  4203
2 20628 070.9799 219.2821 0212849 258.4266 168.8099 13.71461322172118
